*******************************************************************************
 Revised: July 31, 2013              Mercury                            199 / 1

 PHYSICAL DATA (updated 2018-Aug-15):
  Vol. Mean Radius (km) =  2440+-1        Density (g cm^-3)     = 5.427
  Mass x10^23 (kg)      =     3.302       Volume (x10^10 km^3)  = 6.085  
  Sidereal rot. period  =    58.6463 d    Sid. rot. rate (rad/s)= 0.00000124001
  Mean solar day        =   175.9421 d    Core radius (km)      = ~1600 
  Geometric Albedo      =     0.106       Surface emissivity    = 0.77+-0.06
  GM (km^3/s^2)         = 22031.78        Equatorial radius, Re = 2440 km
  GM 1-sigma (km^3/s^2) =   +-0.91        Mass ratio (Sun/plnt) = 6023682
  Mom. of Inertia       =     0.33        Equ. gravity  m/s^2   = 3.701     
  Atmos. pressure (bar) = < 5x10^-15      Max. angular diam.    = 11.0"   
  Mean Temperature (K)  = 440             Visual mag. V(1,0)    = -0.42 
  Obliquity to orbit[1] =  2.11' +/- 0.1' Hill's sphere rad. Rp = 94.4 
  Sidereal orb. per.    =  0.2408467 y    Mean Orbit vel.  km/s = 47.362 
  Sidereal orb. per.    = 87.969257  d    Escape vel. km/s      =  4.435
                                 Perihelion  Aphelion    Mean
  Solar Constant (W/m^2)         14462       6278        9126
  Maximum Planetary IR (W/m^2)   12700       5500        8000
  Minimum Planetary IR (W/m^2)   6           6           6
*******************************************************************************
 
 
*******************************************************************************
Ephemeris / WWW_USER Mon Oct 19 14:46:48 2020 Pasadena, USA      / Horizons
*******************************************************************************
Target body name: Mercury (199)                   {source: DE431mx}
Center body name: Solar System Barycenter (0)     {source: DE431mx}
Center-site name: BODY CENTER
*******************************************************************************
Start time      : A.D. 2020-Oct-17 00:00:00.0000 TDB
Stop  time      : A.D. 2020-Nov-16 00:00:00.0000 TDB
Step-size       : 1440 minutes
*******************************************************************************
Center geodetic : 0.00000000,0.00000000,0.0000000 {E-lon(deg),Lat(deg),Alt(km)}
Center cylindric: 0.00000000,0.00000000,0.0000000 {E-lon(deg),Dxy(km),Dz(km)}
Center radii    : (undefined)                                                  
Output units    : AU-D
Output type     : GEOMETRIC cartesian states
Output format   : 3 (position, velocity, LT, range, range-rate)
Reference frame : Ecliptic of J2000.0
*******************************************************************************
JDTDB
   X     Y     Z
   VX    VY    VZ
   LT    RG    RR
*******************************************************************************
$$SOE
2459162.500000000 = A.D. 2020-Nov-09 00:00:00.0000 TDB 
 X =-1.646002247939301E-01 Y = 2.839821196084508E-01 Z = 3.730829654479814E-02
 VX=-3.011240912692238E-02 VY=-1.286526519170984E-02 VZ= 1.710955301113741E-03
 LT= 1.907941298505275E-03 RG= 3.303497952937088E-01 RR= 4.137544143005282E-03
2459163.500000000 = A.D. 2020-Nov-10 00:00:00.0000 TDB 
 X =-1.939752142601345E-01 Y = 2.699187792461591E-01 Z = 3.885370621721787E-02
 VX=-2.860451032190344E-02 VY=-1.522598063872347E-02 VZ= 1.379727028019471E-03
 LT= 1.932790318382300E-03 RG= 3.346522697126313E-01 RR= 4.459540709392798E-03
2459164.500000000 = A.D. 2020-Nov-11 00:00:00.0000 TDB 
 X =-2.217490309569694E-01 Y = 2.536032778331332E-01 Z = 4.006820203364354E-02
 VX=-2.691595197451662E-02 VY=-1.736756241088237E-02 VZ= 1.049833204248631E-03
 LT= 1.959362925462414E-03 RG= 3.392531740047147E-01 RR= 4.734459584361164E-03
2459165.500000000 = A.D. 2020-Nov-12 00:00:00.0000 TDB 
 X =-2.477585363447759E-01 Y = 2.352597397791726E-01 Z = 4.095513349275758E-02
 VX=-2.508159200155317E-02 VY=-1.928108466684551E-02 VZ= 7.252007806662792E-04
 LT= 1.987389010591000E-03 RG= 3.441057402196007E-01 RR= 4.963056576187113E-03
2459166.500000000 = A.D. 2020-Nov-13 00:00:00.0000 TDB 
 X =-2.718747154156747E-01 Y = 2.151181982110215E-01 Z = 4.152146313239320E-02
 VX=-2.313464906657490E-02 VY=-2.096350136594121E-02 VZ= 4.091258669222538E-04
 LT= 2.016605010434791E-03 RG= 3.491643337807644E-01 RR= 5.146811457865797E-03
2459167.500000000 = A.D. 2020-Nov-14 00:00:00.0000 TDB 
 X =-2.940005832541672E-01 Y = 1.934091961855332E-01 Z = 4.177713333167284E-02
 VX=-2.110585063450319E-02 VY=-2.241667022050964E-02 VZ= 1.042753399148428E-04
 LT= 2.046757559057972E-03 RG= 3.543850857363173E-01 RR= 5.287746658411687E-03
2459168.500000000 = A.D. 2020-Nov-15 00:00:00.0000 TDB 
 X =-3.140684033936538E-01 Y = 1.703593891828335E-01 Z = 4.173445180364244E-02
 VX=-1.902290217310196E-02 VY=-2.364634204390109E-02 VZ=-1.872792609216473E-04
 LT= 2.077606137363799E-03 RG= 3.597263514956022E-01 RR= 5.388262831079793E-03
2459169.500000000 = A.D. 2020-Nov-16 00:00:00.0000 TDB 
 X =-3.320365168461955E-01 Y = 1.461881407985351E-01 Z = 4.140752253430863E-02
 VX=-1.691023015762537E-02 VY=-2.466119596847707E-02 VZ=-4.640064705070578E-04
 LT= 2.108924836137302E-03 RG= 3.651490160905756E-01 RR= 5.450996951962518E-03
